GLOBALSTAR M067         
1 32263U 07048A   25117.68320664 -.00000039  00000+0  43301-3 0  9992
2 32263  51.9714 183.7116 0001055 218.1272 311.5935 12.40671183803210
GLOBALSTAR M070         
1 32264U 07048B   25117.95984902 -.00000086  00000+0  98851-4 0  9997
2 32264  51.9749 281.5165 0000801  93.7167  82.3033 12.62317113807320
GLOBALSTAR M066         
1 32265U 07048C   25117.64218294 -.00000045  00000+0  40656-3 0  9992
2 32265  51.9626 171.8061 0002072 140.6152  29.5821 12.35103318809059
GLOBALSTAR M068         
1 32266U 07048D   25117.96085606 -.00000058  00000+0  25620-3 0  9995
2 32266  51.9871  95.3608 0001244  29.4447 348.0944 12.62822086811216
GLOBALSTAR M079         
1 37188U 10054A   25117.91474862 -.00000094  00000+0  53959-4 0  9992
2 37188  52.0040 292.8233 0000945 122.0894  29.1059 12.62273514670106
GLOBALSTAR M074         
1 37189U 10054B   25117.94311147 -.00000095  00000+0  51534-4 0  9990
2 37189  52.0018 292.0685 0000638 108.0920  50.7073 12.62274553670715
GLOBALSTAR M076         
1 37190U 10054C   25117.89146662 -.00000072  00000+0  17470-3 0  9999
2 37190  52.0028 292.3898 0000652 125.2114  40.5231 12.62261960670428
GLOBALSTAR M077         
1 37191U 10054D   25117.54643919 -.00000103  00000+0  35355-5 0  9998
2 37191  52.0066 250.2827 0000668 123.0671 333.0227 12.62273612671497
